[{"OBJECT_NAME":"ONEWEB-0656","OBJECT_ID":"2023-029X","EPOCH":"2026-03-09T15:49:54.776064","MEAN_MOTION":13.20770703,"ECCENTRICITY":0.0001393,"INCLINATION":87.9171,"RA_OF_ASC_NODE":294.3009,"ARG_OF_PERICENTER":70.4706,"MEAN_ANOMALY":289.6578,"EPHEMERIS_TYPE":0,"CLASSIFICATION_TYPE":"U","NORAD_CAT_ID":55817,"ELEMENT_SET_NO":999,"REV_AT_EPOCH":14801,"BSTAR":-0.00029553547,"MEAN_MOTION_DOT":-1.07e-6,"MEAN_MOTION_DDOT":0},{"OBJECT_NAME":"SL-14 DEB","OBJECT_ID":"1991-056S","EPOCH":"2026-03-09T08:35:20.457888","MEAN_MOTION":13.21714724,"ECCENTRICITY":0.00252218,"INCLINATION":82.5887,"RA_OF_ASC_NODE":214.289,"ARG_OF_PERICENTER":211.1552,"MEAN_ANOMALY":148.8079,"EPHEMERIS_TYPE":0,"CLASSIFICATION_TYPE":"U","NORAD_CAT_ID":45280,"ELEMENT_SET_NO":999,"REV_AT_EPOCH":29192,"BSTAR":0.0034035227,"MEAN_MOTION_DOT":1.418e-5,"MEAN_MOTION_DDOT":0}]
